OBJECT_NAME,OBJECT_ID,EPOCH,MEAN_MOTION,ECCENTRICITY,INCLINATION,RA_OF_ASC_NODE,ARG_OF_PERICENTER,MEAN_ANOMALY,EPHEMERIS_TYPE,CLASSIFICATION_TYPE,NORAD_CAT_ID,ELEMENT_SET_NO,REV_AT_EPOCH,BSTAR,MEAN_MOTION_DOT,MEAN_MOTION_DDOT
LAOSAT 1,2015-067A,2026-07-12T14:45:38.923776,1.00269684,.00021579,0.0373,148.9745,269.9330,221.5231,0,U,41034,999,3911,0,-.343E-5,0
TELSTAR 12V,2015-068A,2026-07-12T10:01:07.172832,1.00270063,.00020459,0.0249,40.4229,69.3601,315.8180,0,U,41036,999,3887,0,0,0
ELEKTRO-L 2,2015-074A,2026-07-12T10:01:14.661120,1.00272262,.00009352,6.7537,70.2096,216.0693,139.8337,0,U,41105,999,3875,0,-.122E-5,0
COSMOS 2513,2015-075A,2026-07-12T01:55:01.188768,1.00271190,.00025293,0.0640,102.9787,343.1244,312.8700,0,U,41121,999,3879,0,-.135E-5,0
EXPRESS-AMU1,2015-082A,2026-07-12T11:58:08.842944,1.00272134,.0002299,0.0145,68.7220,52.9603,24.3261,0,U,41191,999,3852,0,.156E-5,0
GAOFEN-4,2015-083A,2026-07-12T15:43:29.885664,1.00268114,.00044792,0.4195,83.8199,121.7292,66.5406,0,U,41194,999,3878,0,-.334E-5,0
BELINTERSAT-1,2016-001A,2026-07-12T12:02:45.900096,1.00272057,.00019275,0.0623,252.2156,176.4215,93.9287,0,U,41238,999,3849,0,.108E-5,0
IRNSS-1E,2016-003A,2026-07-10T13:58:50.692224,1.00267797,.0019285,33.2836,59.4106,178.7449,11.7354,0,U,41241,999,3831,0,-.316E-5,0
EUTELSAT 9B,2016-005A,2026-07-12T08:25:18.859008,1.00269662,.00010114,0.0296,54.1925,45.5278,325.8409,0,U,41310,999,3836,0,.63E-6,0
SES-9,2016-013A,2026-07-12T08:53:38.641632,1.00270209,.00020912,0.0161,330.7984,134.2181,66.9621,0,U,41380,999,3769,0,-.343E-5,0
EUTELSAT 65 WEST A,2016-014A,2026-07-12T11:29:26.593728,1.00270151,.00020089,0.0647,317.7159,156.3816,283.4490,0,U,41382,999,3777,0,-.275E-5,0
IRNSS-1F,2016-015A,2026-07-11T22:16:03.525312,1.00264621,.0017645,5.4093,96.2089,180.2609,19.9462,0,U,41384,999,3791,0,.155E-5,0
BEIDOU-2 IGSO-6,2016-021A,2026-06-26T02:38:38.671584,1.00258926,.0057558,60.2385,37.9495,231.0163,137.2672,0,U,41434,999,3757,0,-.145E-5,0
IRNSS-1G,2016-027A,2026-07-12T12:24:59.567040,1.00272473,.0005967,5.2563,96.8886,9.9583,139.4871,0,U,41469,999,3743,0,-.339E-5,0
JCSAT-2B,2016-028A,2026-07-12T15:01:38.596224,1.00270907,.00007129,0.0184,32.8632,76.0869,200.9788,0,U,41471,999,3738,0,-.165E-5,0
THAICOM 8,2016-031A,2026-07-12T10:27:42.124608,1.00270521,.00029591,0.0704,46.1750,27.4285,92.1383,0,U,41552,999,3697,0,-.12E-5,0
INTELSAT 31 (IS-31),2016-035A,2026-07-12T07:14:38.791104,1.00271417,.00011251,0.0139,293.5613,346.8201,23.4277,0,U,41581,999,3693,0,-.149E-5,0
BEIDOU-2 G7,2016-037A,2026-07-12T15:44:52.254240,1.00274892,.00060177,1.7795,69.4808,359.1787,208.6232,0,U,41586,999,714,0,-.355E-5,0
ABS-2A (MONGOLSAT-1),2016-038A,2026-07-12T12:09:22.766400,1.00268724,.00012753,0.0132,16.9790,37.8774,132.5860,0,U,41588,999,3696,0,-.82E-6,0
EUTELSAT 117 WEST B,2016-038B,2026-07-12T09:23:38.695776,1.00270256,.00002597,0.0123,120.2937,354.1008,199.8112,0,U,41589,999,3691,0,-.1E-6,0
BRISAT,2016-039A,2026-07-12T15:01:38.596224,1.00271005,.0001843,0.0150,349.9098,121.6363,194.8783,0,U,41591,999,3686,0,-.196E-5,0
ECHOSTAR 18,2016-039B,2026-07-12T10:33:06.503904,1.00271421,.00014193,0.0041,100.7174,20.7657,265.7581,0,U,41592,999,3687,0,-.281E-5,0
MUOS-5,2016-041A,2026-07-12T10:55:38.815968,1.00271746,.01994296,2.1511,302.1495,260.6376,146.3273,0,U,41622,999,3734,0,-.122E-5,0
TIANTONG-1 1,2016-048A,2026-07-12T15:42:15.006240,1.00269932,.00049414,3.8968,43.6037,57.7604,166.1364,0,U,41725,999,3652,0,-.32E-5,0
JCSAT-16,2016-050A,2026-07-12T13:54:38.728224,1.00270589,.00008514,0.0044,100.0427,30.8124,152.2202,0,U,41729,999,3632,0,-.251E-5,0
USA 270,2016-052A,2026-07-11T11:26:02.408928,1.00269374,.0009314,4.2578,76.8776,101.3149,48.8838,0,U,41744,999,2837,0,-.349E-5,0
USA 271,2016-052B,2026-07-07T17:38:01.230144,1.00271212,.0010955,4.2217,76.9947,166.6184,44.5685,0,U,41745,999,2812,0,-.278E-5,0
INTELSAT 36 (IS-36),2016-053A,2026-07-12T12:18:52.767936,1.00269877,.00025262,0.0104,9.2125,331.7832,202.6152,0,U,41747,999,3621,0,-.23E-6,0
INSAT-3DR,2016-054A,2026-07-12T12:09:07.789824,1.00270834,.00106417,0.0628,88.7472,181.1238,276.8125,0,U,41752,999,3607,0,-.76E-6,0
GSAT-18,2016-060A,2026-07-12T12:09:07.789824,1.00271077,.00052364,0.0284,89.2470,348.7297,108.6692,0,U,41793,999,3578,0,-.76E-6,0
SKY MUSTER 2 (NBN1B),2016-060B,2026-07-12T13:54:38.728224,1.00270054,.00014114,0.0145,348.5214,127.6431,167.7553,0,U,41794,999,3577,0,-.244E-5,0
HIMAWARI-9,2016-064A,2026-07-12T13:54:38.728224,1.00270009,.00021191,0.0305,60.5510,116.4180,102.9227,0,U,41836,999,3546,0,0,0
