LAOSAT 1                
1 41034U 15067A   26193.61503384 -.00000343  00000+0  00000+0 0  9991
2 41034   0.0373 148.9745 0002157 269.9330 221.5231  1.00269684 39118
TELSTAR 12V             
1 41036U 15068A   26193.41744413  .00000000  00000+0  00000+0 0  9991
2 41036   0.0249  40.4229 0002045  69.3601 315.8180  1.00270063 38879
ELEKTRO-L 2             
1 41105U 15074A   26193.41753080 -.00000122  00000+0  00000+0 0  9991
2 41105   6.7537  70.2096 0000935 216.0693 139.8337  1.00272262 38758
COSMOS 2513             
1 41121U 15075A   26193.07987487 -.00000135  00000+0  00000+0 0  9996
2 41121   0.0640 102.9787 0002529 343.1244 312.8700  1.00271190 38793
EXPRESS-AMU1            
1 41191U 15082A   26193.49871346  .00000156  00000+0  00000+0 0  9995
2 41191   0.0145  68.7220 0002299  52.9603  24.3261  1.00272134 38526
GAOFEN-4                
1 41194U 15083A   26193.65520701 -.00000334  00000+0  00000+0 0  9992
2 41194   0.4195  83.8199 0004479 121.7292  66.5406  1.00268114 38782
BELINTERSAT-1           
1 41238U 16001A   26193.50192014  .00000108  00000+0  00000+0 0  9996
2 41238   0.0623 252.2156 0001927 176.4215  93.9287  1.00272057 38495
IRNSS-1E                
1 41241U 16003A   26191.58253116 -.00000316  00000+0  00000+0 0  9991
2 41241  33.2836  59.4106 0019285 178.7449  11.7354  1.00267797 38314
EUTELSAT 9B             
1 41310U 16005A   26193.35091272  .00000063  00000+0  00000+0 0  9998
2 41310   0.0296  54.1925 0001011  45.5278 325.8409  1.00269662 38361
SES-9                   
1 41380U 16013A   26193.37058613 -.00000343  00000+0  00000+0 0  9990
2 41380   0.0161 330.7984 0002091 134.2181  66.9621  1.00270209 37698
EUTELSAT 65 WEST A      
1 41382U 16014A   26193.47878002 -.00000275  00000+0  00000+0 0  9990
2 41382   0.0647 317.7159 0002008 156.3816 283.4490  1.00270151 37771
IRNSS-1F                
1 41384U 16015A   26192.92781858  .00000155  00000+0  00000+0 0  9990
2 41384   5.4093  96.2089 0017645 180.2609  19.9462  1.00264621 37919
BEIDOU-2 IGSO-6         
1 41434U 16021A   26177.11016981 -.00000145  00000+0  00000+0 0  9995
2 41434  60.2385  37.9495 0057558 231.0163 137.2672  1.00258926 37578
IRNSS-1G                
1 41469U 16027A   26193.51735610 -.00000339  00000+0  00000+0 0  9993
2 41469   5.2563  96.8886 0005967   9.9583 139.4871  1.00272473 37439
JCSAT-2B                
1 41471U 16028A   26193.62614116 -.00000165  00000+0  00000+0 0  9993
2 41471   0.0184  32.8632 0000712  76.0869 200.9788  1.00270907 37383
THAICOM 8               
1 41552U 16031A   26193.43590422 -.00000120  00000+0  00000+0 0  9990
2 41552   0.0704  46.1750 0002959  27.4285  92.1383  1.00270521 36975
INTELSAT 31 (IS-31)     
1 41581U 16035A   26193.30183786 -.00000149  00000+0  00000+0 0  9994
2 41581   0.0139 293.5613 0001125 346.8201  23.4277  1.00271417 36935
BEIDOU-2 G7             
1 41586U 16037A   26193.65616035 -.00000355  00000+0  00000+0 0  9996
2 41586   1.7795  69.4808 0006017 359.1787 208.6232  1.00274892  7142
ABS-2A (MONGOLSAT-1)    
1 41588U 16038A   26193.50651350 -.00000082  00000+0  00000+0 0  9999
2 41588   0.0132  16.9790 0001275  37.8774 132.5860  1.00268724 36966
EUTELSAT 117 WEST B     
1 41589U 16038B   26193.39142009 -.00000010  00000+0  00000+0 0  9994
2 41589   0.0123 120.2937 0000259 354.1008 199.8112  1.00270256 36919
BRISAT                  
1 41591U 16039A   26193.62614116 -.00000196  00000+0  00000+0 0  9992
2 41591   0.0150 349.9098 0001843 121.6363 194.8783  1.00271005 36867
ECHOSTAR 18             
1 41592U 16039B   26193.43965861 -.00000281  00000+0  00000+0 0  9993
2 41592   0.0041 100.7174 0001419  20.7657 265.7581  1.00271421 36876
MUOS-5                  
1 41622U 16041A   26193.45531037 -.00000122  00000+0  00000+0 0  9990
2 41622   2.1511 302.1495 0199429 260.6376 146.3273  1.00271746 37346
TIANTONG-1 1            
1 41725U 16048A   26193.65434035 -.00000320  00000+0  00000+0 0  9993
2 41725   3.8968  43.6037 0004941  57.7604 166.1364  1.00269932 36520
JCSAT-16                
1 41729U 16050A   26193.57961491 -.00000251  00000+0  00000+0 0  9995
2 41729   0.0044 100.0427 0000851  30.8124 152.2202  1.00270589 36329
USA 270                 
1 41744U 16052A   26192.47641677 -.00000349  00000+0  00000+0 0  9991
2 41744   4.2578  76.8776 0009314 101.3149  48.8838  1.00269374 28376
USA 271                 
1 41745U 16052B   26188.73473646 -.00000278  00000+0  00000+0 0  9996
2 41745   4.2217  76.9947 0010955 166.6184  44.5685  1.00271212 28124
INTELSAT 36 (IS-36)     
1 41747U 16053A   26193.51311074 -.00000023  00000+0  00000+0 0  9995
2 41747   0.0104   9.2125 0002526 331.7832 202.6152  1.00269877 36211
INSAT-3DR               
1 41752U 16054A   26193.50634016 -.00000076  00000+0  00000+0 0  9993
2 41752   0.0628  88.7472 0010641 181.1238 276.8125  1.00270834 36071
GSAT-18                 
1 41793U 16060A   26193.50634016 -.00000076  00000+0  00000+0 0  9995
2 41793   0.0284  89.2470 0005236 348.7297 108.6692  1.00271077 35786
SKY MUSTER 2 (NBN1B)    
1 41794U 16060B   26193.57961491 -.00000244  00000+0  00000+0 0  9990
2 41794   0.0145 348.5214 0001411 127.6431 167.7553  1.00270054 35770
HIMAWARI-9              
1 41836U 16064A   26193.57961491  .00000000  00000+0  00000+0 0  9990
2 41836   0.0305  60.5510 0002119 116.4180 102.9227  1.00270009 35463
